{"type": "FeatureCollection", "features": [ {"type": "Feature", "properties": {"norad_id": 58655, "name": "BEIDOU-3 M26 (C48)", "group": "beidou", "lat": -49.687677689102365, "lon": -57.40808213274601, "alt_km": 21523.943613935582, "timestamp": "2025-12-06T16:45:42.987605+00:00", "meta": {"OBJECT_NAME": "BEIDOU-3 M26 (C48)", "OBJECT_ID": "2023-207B", "EPOCH": "2025-12-03T02:34:45.227424", "MEAN_MOTION": 1.86231091, "ECCENTRICITY": 0.00034591, "INCLINATION": 55.5782, "RA_OF_ASC_NODE": 68.9139, "ARG_OF_PERICENTER": 250.5367, "MEAN_ANOMALY": 109.429, "EPHEMERIS_TYPE": 0, "CLASSIFICATION_TYPE": "U", "NORAD_CAT_ID": 58655, "ELEMENT_SET_NO": 999, "REV_AT_EPOCH": 1317, "BSTAR": 0, "MEAN_MOTION_DOT": -5e-07, "MEAN_MOTION_DDOT": 0}, "tle": {"line1": "1 58655U 23207B   25337.10746791 -.00000050  00000+0  00000+0 0  9992", "line2": "2 58655  55.5782  68.9139 0003459 250.5367 109.4290  1.86231091 13176"}}, "geometry": {"type": "Point", "coordinates": [-57.40808213274601, -49.687677689102365]}}, {"type": "Feature", "properties": {"norad_id": 61186, "name": "BEIDOU-3 M25 (C47)", "group": "beidou", "lat": 3.6789300848576922, "lon": -48.47877303796891, "alt_km": 21522.626408599535, "timestamp": "2025-12-06T16:45:42.987616+00:00", "meta": {"OBJECT_NAME": "BEIDOU-3 M25 (C47)", "OBJECT_ID": "2024-168B", "EPOCH": "2025-12-06T03:42:38.696256", "MEAN_MOTION": 1.86229727, "ECCENTRICITY": 0.0005472, "INCLINATION": 54.6479, "RA_OF_ASC_NODE": 308.9479, "ARG_OF_PERICENTER": 294.8981, "MEAN_ANOMALY": 64.9511, "EPHEMERIS_TYPE": 0, "CLASSIFICATION_TYPE": "U", "NORAD_CAT_ID": 61186, "ELEMENT_SET_NO": 999, "REV_AT_EPOCH": 818, "BSTAR": 0, "MEAN_MOTION_DOT": -7.1e-07, "MEAN_MOTION_DDOT": 0}, "tle": {"line1": "1 61186U 24168B   25340.15461454 -.00000071  00000+0  00000+0 0  9994", "line2": "2 61186  54.6479 308.9479 0005472 294.8981  64.9511  1.86229727  8185"}}, "geometry": {"type": "Point", "coordinates": [-48.47877303796891, 3.6789300848576922]}}, {"type": "Feature", "properties": {"norad_id": 61187, "name": "BEIDOU-3 M27 (C49)", "group": "beidou", "lat": 32.02507957115939, "lon": 102.54240303290972, "alt_km": 21530.464306175563, "timestamp": "2025-12-06T16:45:42.987627+00:00", "meta": {"OBJECT_NAME": "BEIDOU-3 M27 (C49)", "OBJECT_ID": "2024-168C", "EPOCH": "2025-12-06T00:40:37.892640", "MEAN_MOTION": 1.86229869, "ECCENTRICITY": 0.00022747, "INCLINATION": 54.6434, "RA_OF_ASC_NODE": 308.936, "ARG_OF_PERICENTER": 331.2531, "MEAN_ANOMALY": 78.7916, "EPHEMERIS_TYPE": 0, "CLASSIFICATION_TYPE": "U", "NORAD_CAT_ID": 61187, "ELEMENT_SET_NO": 999, "REV_AT_EPOCH": 566, "BSTAR": 0, "MEAN_MOTION_DOT": -7.1e-07, "MEAN_MOTION_DDOT": 0}, "tle": {"line1": "1 61187U 24168C   25340.02821635 -.00000071  00000+0  00000+0 0  9992", "line2": "2 61187  54.6434 308.9360 0002274 331.2531  78.7916  1.86229869  5669"}}, "geometry": {"type": "Point", "coordinates": [102.54240303290972, 32.02507957115939]}}]}